[{"OBJECT_NAME":"OBJECT V","OBJECT_ID":"2023-085V","EPOCH":"2026-03-09T21:44:00.165408","MEAN_MOTION":15.30745852,"ECCENTRICITY":0.00069081,"INCLINATION":97.4843,"RA_OF_ASC_NODE":179.3833,"ARG_OF_PERICENTER":71.0503,"MEAN_ANOMALY":289.1485,"EPHEMERIS_TYPE":0,"CLASSIFICATION_TYPE":"U","NORAD_CAT_ID":57023,"ELEMENT_SET_NO":999,"REV_AT_EPOCH":15149,"BSTAR":0.00067780507,"MEAN_MOTION_DOT":0.00020109,"MEAN_MOTION_DDOT":0},{"OBJECT_NAME":"STARLINK-32038","OBJECT_ID":"2024-132D","EPOCH":"2026-03-09T23:02:10.766976","MEAN_MOTION":15.30194721,"ECCENTRICITY":0.00012282,"INCLINATION":53.1612,"RA_OF_ASC_NODE":51.0404,"ARG_OF_PERICENTER":101.1582,"MEAN_ANOMALY":258.9557,"EPHEMERIS_TYPE":0,"CLASSIFICATION_TYPE":"U","NORAD_CAT_ID":60281,"ELEMENT_SET_NO":999,"REV_AT_EPOCH":9160,"BSTAR":-0.00011655364,"MEAN_MOTION_DOT":-3.809e-5,"MEAN_MOTION_DDOT":0}]
